NORAD_CAT_ID,OBJECT_NAME,OBJECT_TYPE,EPOCH,MEAN_MOTION,ECCENTRICITY,INCLINATION,RA_OF_ASC_NODE,ARG_OF_PERICENTER,MEAN_ANOMALY,BSTAR,MEAN_MOTION_DOT,MEAN_MOTION_DDOT,TLE_LINE0,TLE_LINE1,TLE_LINE2,SEMIMAJOR_AXIS,PERIOD,APOGEE,PERIGEE,DECAYED
53175.0,STARLINK-4292,PAYLOAD,2023-10-12 22:45:58,15.08846918,0.0001425,53.2162,158.9447,95.6534,264.4621,0.00019379,2.798e-05,0.0,0 STARLINK-4292,1 53175U 22083AV  23285.94859935  .00002798  00000-0  19379-3 0  9996,2 53175  53.2162 158.9447 0001425  95.6534 264.4621 15.08846918 68553,6917.859,95.437,540.71,538.738,0.0
53175.0,STARLINK-4292,PAYLOAD,2023-10-13 01:56:45,15.08850125,0.0001559,53.2163,158.3487,102.0242,258.0925,0.00025269,3.737e-05,0.0,0 STARLINK-4292,1 53175U 22083AV  23286.08107660  .00003737  00000-0  25269-3 0  9992,2 53175  53.2163 158.3487 0001559 102.0242 258.0925 15.08850125 69214,6917.849,95.437,540.793,538.636,0.0
53175.0,STARLINK-4292,PAYLOAD,2023-10-13 22:36:45,15.08849597,0.0001246,53.2153,154.4844,80.835,279.2783,0.00025053,3.703e-05,0.0,0 STARLINK-4292,1 53175U 22083AV  23286.94219804  .00003703  00000-0  25053-3 0  9995,2 53175  53.2153 154.4844 0001246  80.8350 279.2783 15.08849597 68704,6917.851,95.437,540.578,538.854,0.0
53175.0,STARLINK-4292,PAYLOAD,2023-10-14 00:12:08,15.08852503,0.000133,53.2156,154.1871,81.0923,279.022,0.0003083,4.624e-05,0.0,0 STARLINK-4292,1 53175U 22083AV  23287.00843719  .00004624  00000-0  30830-3 0  9993,2 53175  53.2156 154.1871 0001330  81.0923 279.0220 15.08852503 69354,6917.842,95.437,540.627,538.787,0.0
53175.0,STARLINK-4292,PAYLOAD,2023-10-14 08:09:04,15.08838702,0.0001694,53.2154,152.7002,88.4155,271.7031,1.0057e-05,-1.28e-06,0.0,0 STARLINK-4292,1 53175U 22083AV  23287.33964107 -.00000128  00000-0  10057-4 0  9990,2 53175  53.2154 152.7002 0001694  88.4155 271.7031 15.08838702 69403,6917.884,95.438,540.921,538.577,0.0
53175.0,STARLINK-4292,PAYLOAD,2023-10-14 20:52:10,15.08835981,0.0001533,53.2151,150.3193,87.0927,273.0241,-5.3896e-05,-1.146e-05,0.0,0 STARLINK-4292,1 53175U 22083AV  23287.86956271 -.00001146  00000-0 -53896-4 0  9991,2 53175  53.2151 150.3193 0001533  87.0927 273.0241 15.08835981 68840,6917.893,95.438,540.818,538.697,0.0
53175.0,STARLINK-4292,PAYLOAD,2023-10-15 07:59:52,15.08837779,0.0001537,53.215,148.2374,95.0529,265.0639,3.7638e-05,3.11e-06,0.0,0 STARLINK-4292,1 53175U 22083AV  23288.33324290  .00000311  00000-0  37638-4 0  9991,2 53175  53.2150 148.2374 0001537  95.0529 265.0639 15.08837779 68914,6917.887,95.438,540.815,538.689,0.0
53175.0,STARLINK-4292,PAYLOAD,2023-10-15 20:42:57,15.08844017,0.0001312,53.2145,145.8612,92.1696,267.9446,0.000135,1.862e-05,0.0,0 STARLINK-4292,1 53175U 22083AV  23288.86316197  .00001862  00000-0  13500-3 0  9999,2 53175  53.2145 145.8612 0001312  92.1696 267.9446 15.08844017 69630,6917.868,95.437,540.641,538.825,0.0
53175.0,STARLINK-4292,PAYLOAD,2023-10-16 07:50:39,15.08842867,0.0001371,53.2141,143.7782,93.8978,266.2171,0.00022449,3.287e-05,0.0,0 STARLINK-4292,1 53175U 22083AV  23289.32684303  .00003287  00000-0  22449-3 0  9993,2 53175  53.2141 143.7782 0001371  93.8978 266.2171 15.08842867 69062,6917.872,95.437,540.685,538.788,0.0
53175.0,STARLINK-4292,PAYLOAD,2023-10-16 17:22:57,15.08848124,0.0001391,53.2148,141.9926,94.7603,265.3548,0.00029132,4.352e-05,0.0,0 STARLINK-4292,1 53175U 22083AV  23289.72428070  .00004352  00000-0  29132-3 0  9994,2 53175  53.2148 141.9926 0001391  94.7603 265.3548 15.08848124 69123,6917.856,95.437,540.683,538.758,0.0
53175.0,STARLINK-4292,PAYLOAD,2023-10-17 20:24:31,15.08843323,0.0001439,53.2144,136.9391,91.8054,268.3103,9.548e-05,1.232e-05,0.0,0 STARLINK-4292,1 53175U 22083AV  23290.85036022  .00001232  00000-0  95480-4 0  9996,2 53175  53.2144 136.9391 0001439  91.8054 268.3103 15.08843323 69935,6917.87,95.437,540.731,538.74,0.0
53175.0,STARLINK-4292,PAYLOAD,2023-10-17 23:35:17,15.0884665,0.0001588,53.2148,136.3426,97.4028,262.7145,0.00012489,1.701e-05,0.0,0 STARLINK-4292,1 53175U 22083AV  23290.98283863  .00001701  00000-0  12489-3 0  9995,2 53175  53.2148 136.3426 0001588  97.4028 262.7145 15.08846650 69312,6917.86,95.437,540.824,538.627,0.0
53175.0,STARLINK-4292,PAYLOAD,2023-10-18 23:26:04,15.0884706,0.0001708,53.2147,131.8821,88.5185,271.6003,0.00010772,1.427e-05,0.0,0 STARLINK-4292,1 53175U 22083AV  23291.97644022  .00001427  00000-0  10772-3 0  9991,2 53175  53.2147 131.8821 0001708  88.5185 271.6003 15.08847060 70106,6917.859,95.437,540.905,538.542,0.0
53175.0,STARLINK-4292,PAYLOAD,2023-10-19 20:06:01,15.08954201,0.0001254,53.2123,128.0156,104.8748,255.2383,0.0020951,0.00033318,0.0,0 STARLINK-4292,1 53175U 22083AV  23292.83752204  .00033318  00000-0  20951-2 0  9992,2 53175  53.2123 128.0156 0001254 104.8748 255.2383 15.08954201 70231,6917.531,95.43,540.264,538.529,0.0
53175.0,STARLINK-4292,PAYLOAD,2023-10-20 00:52:14,15.08853571,0.0001763,53.2133,127.1258,91.924,268.1954,0.00034694,5.24e-05,0.0,0 STARLINK-4292,1 53175U 22083AV  23293.03627474  .00005240  00000-0  34694-3 0  9998,2 53175  53.2133 127.1258 0001763  91.9240 268.1954 15.08853571 70261,6917.839,95.437,540.924,538.484,0.0
53175.0,STARLINK-4292,PAYLOAD,2023-10-20 13:35:19,15.0883163,0.0001575,53.2136,124.7464,101.0747,259.0422,-0.00013996,-2.514e-05,0.0,0 STARLINK-4292,1 53175U 22083AV  23293.56620271 -.00002514  00000-0 -13996-3 0  9999,2 53175  53.2136 124.7464 0001575 101.0747 259.0422 15.08831630 70342,6917.906,95.438,540.861,538.681,0.0
53175.0,STARLINK-4292,PAYLOAD,2023-10-20 18:21:29,15.08840886,0.0002905,53.2156,123.8549,79.8745,280.2575,-0.00038821,-6.462e-05,0.0,0 STARLINK-4292,1 53175U 22083AV  23293.76492186 -.00006462  00000-0 -38821-3 0  9993,2 53175  53.2156 123.8549 0002905  79.8745 280.2575 15.08840886 70377,6917.878,95.437,541.752,537.733,0.0
53175.0,STARLINK-4292,PAYLOAD,2023-10-20 21:32:15,15.08834964,0.0001346,53.2157,123.2604,95.5639,264.5507,1.1249e-05,-1.09e-06,0.0,0 STARLINK-4292,1 53175U 22083AV  23293.89740308 -.00000109  00000-0  11249-4 0  9996,2 53175  53.2157 123.2604 0001346  95.5639 264.5507 15.08834964 69759,6917.896,95.438,540.692,538.83,0.0
53175.0,STARLINK-4292,PAYLOAD,2023-10-20 23:07:38,15.08834491,0.0001368,53.2157,122.9629,98.0958,262.0189,8.9355e-05,1.134e-05,0.0,0 STARLINK-4292,1 53175U 22083AV  23293.96364305  .00001134  00000-0  89355-4 0  9994,2 53175  53.2157 122.9629 0001368  98.0958 262.0189 15.08834491 70406,6917.897,95.438,540.709,538.816,0.0
53175.0,STARLINK-4292,PAYLOAD,2023-10-21 13:26:07,15.08842212,0.0001396,53.2157,120.2866,101.9137,258.2012,0.00033111,4.986e-05,0.0,0 STARLINK-4292,1 53175U 22083AV  23294.55980413  .00004986  00000-0  33111-3 0  9990,2 53175  53.2157 120.2866 0001396 101.9137 258.2012 15.08842212 69853,6917.874,95.437,540.704,538.773,0.0
53175.0,STARLINK-4292,PAYLOAD,2023-10-21 21:23:02,15.08848455,0.0001306,53.2156,118.7992,104.1095,256.0043,0.00061206,9.469e-05,0.0,0 STARLINK-4292,1 53175U 22083AV  23294.89100344  .00009469  00000-0  61206-3 0  9991,2 53175  53.2156 118.7992 0001306 104.1095 256.0043 15.08848455 69904,6917.855,95.437,540.623,538.816,0.0
53175.0,STARLINK-4292,PAYLOAD,2023-10-22 05:19:58,15.08841268,0.0001828,53.2159,117.3132,84.579,275.5411,0.00016361,2.317e-05,0.0,0 STARLINK-4292,1 53175U 22083AV  23295.22220709  .00002317  00000-0  16361-3 0  9994,2 53175  53.2159 117.3132 0001828  84.5790 275.5411 15.08841268 70597,6917.877,95.437,541.006,538.477,0.0
53175.0,STARLINK-4292,PAYLOAD,2023-10-22 19:38:27,15.08835209,0.0001447,53.2154,114.6368,71.0589,289.056,0.00014215,1.975e-05,0.0,0 STARLINK-4292,1 53175U 22083AV  23295.81837148  .00001975  00000-0  14215-3 0  9995,2 53175  53.2154 114.6368 0001447  71.0589 289.0560 15.08835209 70680,6917.895,95.438,540.761,538.759,0.0
53175.0,STARLINK-4292,PAYLOAD,2023-10-23 21:04:37,15.08847645,0.0001284,53.2158,109.8782,86.1734,273.9405,0.00015944,2.251e-05,0.0,0 STARLINK-4292,1 53175U 22083AV  23296.87820709  .00002251  00000-0  15944-3 0  9995,2 53175  53.2158 109.8782 0001284  86.1734 273.9405 15.08847645 70203,6917.857,95.437,540.61,538.834,0.0
53175.0,STARLINK-4292,PAYLOAD,2023-10-24 03:26:10,15.08838341,0.0001309,53.2158,108.6882,87.7132,272.401,0.00011506,1.544e-05,0.0,0 STARLINK-4292,1 53175U 22083AV  23297.14317171  .00001544  00000-0  11506-3 0  9994,2 53175  53.2158 108.6882 0001309  87.7132 272.4010 15.08838341 70881,6917.885,95.438,540.656,538.845,0.0
53175.0,STARLINK-4292,PAYLOAD,2023-10-24 12:58:28,15.08841227,0.0001231,53.2156,106.9046,86.8906,273.2227,0.00024853,3.67e-05,0.0,0 STARLINK-4292,1 53175U 22083AV  23297.54061150  .00003670  00000-0  24853-3 0  9992,2 53175  53.2156 106.9046 0001231  86.8906 273.2227 15.08841227 70308,6917.877,95.437,540.593,538.89,0.0
53175.0,STARLINK-4292,PAYLOAD,2023-10-24 14:33:51,15.08844289,0.0001274,53.2158,106.607,88.2609,271.8529,0.00029867,4.469e-05,0.0,0 STARLINK-4292,1 53175U 22083AV  23297.60685065  .00004469  00000-0  29867-3 0  9993,2 53175  53.2158 106.6070 0001274  88.2609 271.8529 15.08844289 70318,6917.867,95.437,540.614,538.851,0.0
53175.0,STARLINK-4292,PAYLOAD,2023-10-25 14:24:38,15.08843833,0.0001308,53.2156,102.1465,87.7919,272.3223,0.00011767,1.586e-05,0.0,0 STARLINK-4292,1 53175U 22083AV  23298.60044894  .00001586  00000-0  11767-3 0  9990,2 53175  53.2156 102.1465 0001308  87.7919 272.3223 15.08843833 71100,6917.869,95.437,540.639,538.829,0.0
53175.0,STARLINK-4292,PAYLOAD,2023-10-26 11:04:39,15.08839339,0.0001274,53.2159,98.2803,90.9981,269.1158,9.8397e-05,1.278e-05,0.0,0 STARLINK-4292,1 53175U 22083AV  23299.46157067  .00001278  00000-0  98397-4 0  9995,2 53175  53.2159  98.2803 0001274  90.9981 269.1158 15.08839339 71232,6917.882,95.438,540.629,538.866,0.0
53175.0,STARLINK-4292,PAYLOAD,2023-10-26 14:15:25,15.08841139,0.0001301,53.2161,97.686,90.158,269.9561,7.2216e-05,8.62e-06,0.0,0 STARLINK-4292,1 53175U 22083AV  23299.59404911  .00000862  00000-0  72216-4 0  9992,2 53175  53.2161  97.6860 0001301  90.1580 269.9561 15.08841139 70617,6917.877,95.437,540.642,538.842,0.0
